{
  "links" : {
    "next" : "https://api.nasa.gov/neo/rest/v1/feed?start_date=1996-04-09&end_date=1996-04-09&detailed=true&api_key=t0TVs3DtDT2H8Oy2Zy8m2eVrNsAVKAexjcZXUckd",
    "prev" : "https://api.nasa.gov/neo/rest/v1/feed?start_date=1996-04-07&end_date=1996-04-07&detailed=true&api_key=t0TVs3DtDT2H8Oy2Zy8m2eVrNsAVKAexjcZXUckd",
    "self" : "https://api.nasa.gov/neo/rest/v1/feed?start_date=1996-04-08&end_date=1996-04-08&detailed=true&api_key=t0TVs3DtDT2H8Oy2Zy8m2eVrNsAVKAexjcZXUckd"
  },
  "element_count" : 5,
  "near_earth_objects" : {
    "1996-04-08" : [ {
      "links" : {
        "self" : "https://api.nasa.gov/neo/rest/v1/neo/3716433?api_key=t0TVs3DtDT2H8Oy2Zy8m2eVrNsAVKAexjcZXUckd"
      },
      "neo_reference_id" : "3716433",
      "name" : "(2015 HA1)",
      "nasa_jpl_url" : "http://ssd.jpl.nasa.gov/sbdb.cgi?sstr=3716433",
      "absolute_magnitude_h" : 21.2,
      "estimated_diameter" : {
        "kilometers" : {
          "estimated_diameter_min" : 0.1529519353,
          "estimated_diameter_max" : 0.3420109247
        },
        "meters" : {
          "estimated_diameter_min" : 152.9519353442,
          "estimated_diameter_max" : 342.0109247198
        },
        "miles" : {
          "estimated_diameter_min" : 0.095039897,
          "estimated_diameter_max" : 0.2125156703
        },
        "feet" : {
          "estimated_diameter_min" : 501.8108275547,
          "estimated_diameter_max" : 1122.0831222578
        }
      },
      "is_potentially_hazardous_asteroid" : false,
      "close_approach_data" : [ {
        "close_approach_date" : "1996-04-08",
        "epoch_date_close_approach" : 828946800000,
        "relative_velocity" : {
          "kilometers_per_second" : "9.7723349524",
          "kilometers_per_hour" : "35180.4058285762",
          "miles_per_hour" : "21859.7360549839"
        },
        "miss_distance" : {
          "astronomical" : "0.3605267486",
          "lunar" : "140.2449035645",
          "kilometers" : "53934032",
          "miles" : "33513054"
        },
        "orbiting_body" : "Earth"
      } ],
      "orbital_data" : {
        "orbit_id" : "52",
        "orbit_determination_date" : "2017-04-06 08:34:22",
        "orbit_uncertainty" : "2",
        "minimum_orbit_intersection" : ".0558885",
        "jupiter_tisserand_invariant" : "6.192",
        "epoch_osculation" : "2458000.5",
        "eccentricity" : ".1884077389571414",
        "semi_major_axis" : ".9641386196073153",
        "inclination" : "19.87053310935988",
        "ascending_node_longitude" : "57.32432318562812",
        "orbital_period" : "345.7861911459773",
        "perihelion_distance" : ".7824874422458415",
        "perihelion_argument" : "315.2260005565768",
        "aphelion_distance" : "1.145789796968789",
        "perihelion_time" : "2457969.366106286140",
        "mean_anomaly" : "32.41367649715665",
        "mean_motion" : "1.0411057735039",
        "equinox" : "J2000"
      }
    }, {
      "links" : {
        "self" : "https://api.nasa.gov/neo/rest/v1/neo/3728860?api_key=t0TVs3DtDT2H8Oy2Zy8m2eVrNsAVKAexjcZXUckd"
      },
      "neo_reference_id" : "3728860",
      "name" : "(2015 SC17)",
      "nasa_jpl_url" : "http://ssd.jpl.nasa.gov/sbdb.cgi?sstr=3728860",
      "absolute_magnitude_h" : 22.9,
      "estimated_diameter" : {
        "kilometers" : {
          "estimated_diameter_min" : 0.0699125232,
          "estimated_diameter_max" : 0.1563291544
        },
        "meters" : {
          "estimated_diameter_min" : 69.9125232246,
          "estimated_diameter_max" : 156.3291544087
        },
        "miles" : {
          "estimated_diameter_min" : 0.0434416145,
          "estimated_diameter_max" : 0.097138403
        },
        "feet" : {
          "estimated_diameter_min" : 229.3718026961,
          "estimated_diameter_max" : 512.8909429502
        }
      },
      "is_potentially_hazardous_asteroid" : false,
      "close_approach_data" : [ {
        "close_approach_date" : "1996-04-08",
        "epoch_date_close_approach" : 828946800000,
        "relative_velocity" : {
          "kilometers_per_second" : "21.9660440228",
          "kilometers_per_hour" : "79077.7584819698",
          "miles_per_hour" : "49135.8438745329"
        },
        "miss_distance" : {
          "astronomical" : "0.4181566329",
          "lunar" : "162.6629333496",
          "kilometers" : "62555340",
          "miles" : "38870088"
        },
        "orbiting_body" : "Earth"
      } ],
      "orbital_data" : {
        "orbit_id" : "11",
        "orbit_determination_date" : "2017-04-06 08:31:41",
        "orbit_uncertainty" : "5",
        "minimum_orbit_intersection" : ".0352876",
        "jupiter_tisserand_invariant" : "4.858",
        "epoch_osculation" : "2458000.5",
        "eccentricity" : ".3767593142180362",
        "semi_major_axis" : "1.325151915459563",
        "inclination" : "4.747354328217402",
        "ascending_node_longitude" : "147.5379904456377",
        "orbital_period" : "557.1818100568966",
        "perihelion_distance" : ".8258885885563008",
        "perihelion_argument" : "319.180602481366",
        "aphelion_distance" : "1.824415242362825",
        "perihelion_time" : "2457935.562019065555",
        "mean_anomaly" : "41.9569926986899",
        "mean_motion" : ".6461086731514775",
        "equinox" : "J2000"
      }
    } ]
  }
}